P/2010 D2 (WISE),e,57.0839,319.8928,120.1308,6.715116,0.0566401,0.45073271,215.0913,07/13.0/2020,2000,g 16.0,4.0
# From MPC 75009
P/2010 E2 (Jarnac),e,15.4135,177.8254,8.3749,8.637024,0.0388292,0.72052776,145.6742,07/13.0/2020,2000,g 14.0,4.0
# From MPC 72851
P/2010 H2 (Vales),e,14.2725,64.2132,128.2734,3.835325,0.1312203,0.19553620,136.1316,07/13.0/2020,2000,g  6.0,4.0
# From MPC 70361
P/2010 H3 (SOHO),e,23.1516,77.2241,26.0206,3.062386,0.1839138,0.98549730,0.0000,02/07.9369/2021,2000,g 20.0,2.0
# From MPC 73463
P/2010 H4 (Scotti),e,2.3194,44.7522,179.5730,6.587885,0.0582888,0.26790910,214.1592,07/13.0/2020,2000,g 10.5,4.0
# From MPC 74637
P/2010 H5 (Scotti),e,14.0704,24.8107,175.3385,7.156143,0.0514856,0.15404814,192.7543,07/13.0/2020,2000,g 13.0,2.0
# From MPC 98558
P/2010 J3 (McMillan),e,13.2911,106.4041,157.5724,8.968098,0.0366989,0.72750264,132.2923,07/13.0/2020,2000,g 11.0,4.0
# From MPC 84315
P/2010 JC81 (WISE),e,38.6944,30.8384,12.4534,8.112436,0.0426557,0.77645514,143.8930,07/13.0/2020,2000,g  9.0,4.0
# From MPC 74248
P/2010 T2 (PANSTARRS),e,7.9345,59.1788,353.9403,5.502720,0.0763551,0.32165589,256.5813,07/13.0/2020,2000,g 11.5,4.0
# From MPC 98558
P/2010 TO20 (LINEAR-Grauer),e,2.4794,43.3001,266.7549,5.827939,0.0700538,0.05424449,299.7745,07/13.0/2020,2000,g  9.0,4.0
# From MPC 82316
P/2010 U1 (Boattini),e,8.2138,280.7214,85.8661,6.513675,0.0592877,0.24768618,226.8434,07/13.0/2020,2000,g  9.5,4.0
# From MPC119994
C/2010 U3 (Boattini),e,55.5168,43.0426,88.0770,2591,0.0000075,0.99674001,0.0000,02/26.1169/2019,2000,g  1.0,4.0
# From MPC 79021
P/2010 UH55 (Spacewatch),e,8.0505,233.0322,225.1858,6.649635,0.0574788,0.56366519,193.9667,07/13.0/2020,2000,g 11.0,4.0
# From MPC 75009
P/2010 WK (LINEAR),e,11.4001,11.3119,41.0045,5.759297,0.0713099,0.68964455,255.1071,07/13.0/2020,2000,g 14.5,2.0
# From MPC 82317
P/2011 A2 (Scotti),e,4.4753,54.6743,94.5454,3.104865,0.1801524,0.49937919,268.7114,07/13.0/2020,2000,g 16.5,4.0
# From MPC 84021
P/2011 C2 (Gibbs),e,10.8857,12.1217,161.0772,7.414197,0.0488211,0.26912770,151.9375,07/13.0/2020,2000,g  9.0,4.0
# From MPC 79866
P/2011 FR143 (Lemmon),e,15.9920,190.9491,350.1572,6.855251,0.0549122,0.45128647,187.6739,07/13.0/2020,2000,g 14.0,2.0
# From MPC 82317
P/2011 JB15 (Spacewatch-Boattini),e,19.1461,153.6046,110.9515,7.352161,0.0494404,0.31835788,152.9017,07/13.0/2020,2000,g  9.0,4.0
# From MPEC 2020-AA5
C/2011 KP36 (Spacewatch),e,18.9832,173.3122,180.6226,38.79223,0.0040793,0.87423212,6.1501,07/13.0/2020,2000,g  4.5,4.0
# From MPC 87913
P/2011 N1 (ASH),e,35.7069,77.6078,330.3452,6.250999,0.0630638,0.54342841,187.7589,07/13.0/2020,2000,g 11.5,4.0
# From MPC 75714
P/2011 NO1 (Elenin),e,15.2491,295.7879,263.8444,5.522381,0.0759477,0.77505102,262.6494,07/13.0/2020,2000,g 15.0,4.0
# From MPC 82318
P/2011 P1 (McNaught),e,5.6565,4.2427,348.8715,7.470504,0.0482702,0.32665213,176.1401,07/13.0/2020,2000,g  9.0,4.0
# From MPC 77806
P/2011 Q3 (McNaught),e,6.0561,32.0243,310.9642,4.970674,0.0889367,0.53243627,291.7352,07/13.0/2020,2000,g 13.5,4.0
# From MPEC 2020-N31
P/2011 R3 (Novichonok-Gerke),e,19.2496,189.6987,225.0446,4.780240,0.0943039,0.27162382,283.8427,07/13.0/2020,2000,g 11.0,4.0
# From MPC 98558
P/2011 S1 (Gibbs),e,2.6835,218.9158,192.5564,8.589898,0.0391491,0.19997081,84.6481,07/13.0/2020,2000,g  8.0,4.0
# From MPEC 2020-N31
P/2011 U2 (Bressi),e,9.9406,263.4423,153.7784,4.905743,0.0907083,0.13362535,258.8058,07/13.0/2020,2000,g 10.0,4.0
# From MPC 79022
P/2011 UA134 (Spacewatch-PANSTARRS),e,10.4451,40.4363,32.4716,5.602527,0.0743238,0.62929390,234.9725,07/13.0/2020,2000,g 17.5,4.0
# From MPC 77406
P/2011 V1 (Boattini),e,7.3778,46.8573,269.2243,3.854202,0.1302574,0.55063231,84.6561,07/13.0/2020,2000,g 15.5,4.0
# From MPC 82718
P/2011 W1 (PANSTARRS),e,3.7186,161.7901,282.7262,4.659918,0.0979798,0.28693029,303.6864,07/13.0/2020,2000,g 11.5,4.0
# From MPC 79342
P/2011 Y2 (Boattini),e,6.3713,309.3696,131.9454,6.239696,0.0632352,0.70917520,192.8578,07/13.0/2020,2000,g 15.0,4.0
# From MPC 94669
P/2012 B1 (PANSTARRS),e,7.6169,36.1951,162.5995,6.526684,0.0591106,0.41005713,150.6525,07/13.0/2020,2000,g  9.0,4.0
# From MPC 78590
P/2012 C3 (PANSTARRS),e,9.0920,135.3677,344.9542,9.748681,0.0323806,0.63011148,359.9758,10/06.0/2011,2000,g 13.0,4.0
# From MPC 84931
P/2012 F2 (PANSTARRS),e,14.7294,227.0667,33.2348,6.327653,0.0619213,0.54295905,163.9403,07/13.0/2020,2000,g 12.0,4.0
# From MPC 79344
P/2012 G1 (PANSTARRS),e,11.6925,282.5440,286.1149,4.172871,0.1156250,0.38072240,359.9500,06/01.0/2012,2000,g 15.0,4.0
# From MPC 80898
P/2012 K3 (Gibbs),e,13.1946,125.8087,172.1282,3.624255,0.1428486,0.42350275,47.2150,07/13.0/2020,2000,g 15.0,4.0
# From MPC112389
C/2012 LP26 (Palomar),h,08/18.8603/2015,25.3436,153.9274,145.3502,1.003600,6.544662,2000,6.5,4.0
# From MPC 88326
P/2012 NJ (La Sagra),e,84.6500,315.5530,338.3173,8.457622,0.0400711,0.84745530,118.2987,07/13.0/2020,2000,g 14.5,4.0
# From MPC 81470
P/2012 O1 (McNaught),e,7.4333,91.9847,238.2076,3.539734,0.1479954,0.59451803,73.7919,07/13.0/2020,2000,g 17.5,4.0
# From MPC 80899
P/2012 O2 (McNaught),e,24.4865,120.6784,183.3866,3.622341,0.1429618,0.53283536,62.0303,07/13.0/2020,2000,g 17.0,4.0
# From MPC 82720
P/2012 O3 (McNaught),e,16.6131,336.4073,344.6944,4.575729,0.1006963,0.64688260,290.9447,07/13.0/2020,2000,g 16.5,4.0
# From MPC 82720
P/2012 S2 (La Sagra),e,8.6874,51.1928,312.5080,4.410273,0.1064158,0.69112891,309.3638,07/13.0/2020,2000,g 17.0,4.0
# From MPEC 2020-N31
P/2012 SB6 (Lemmon),e,10.9288,8.2112,14.3899,3.825377,0.1317324,0.40479702,3.1282,07/13.0/2020,2000,g 14.0,4.0
# From MPEC 2020-N31
C/2014 B1 (Schwartz),e,28.4025,161.4084,345.8100,19624,0.0000004,0.99951307,0.0000,09/09.5589/2017,2000,g  4.0,4.0
# From MPEC 2020-N31
C/2014 Y1 (PANSTARRS),h,01/16.4795/2016,14.9130,19.5439,182.3393,1.001577,2.252484,2000,9.5,4.0
# From MPEC 2020-N31
C/2015 XY1 (Lemmon),h,04/28.2200/2018,148.8558,281.6257,196.2573,1.003466,7.924995,2000,5.5,4.0
# From MPEC 2020-N31
C/2016 N6 (PANSTARRS),e,105.8409,298.9907,162.7548,1680,0.0000143,0.99841234,0.0000,07/18.0907/2018,2000,g  7.0,4.0
# From MPEC 2020-N31
C/2016 Q2 (PANSTARRS),e,109.3890,322.2984,84.5033,23905,0.0000003,0.99970374,0.0000,05/11.5755/2021,2000,g  6.0,4.0
# From MPEC 2020-N31
C/2016 R2 (PANSTARRS),e,58.2259,80.5684,33.1787,548.1046,0.0000768,0.99525094,0.0000,05/09.2833/2018,2000,g  7.0,4.0
# From MPEC 2020-N31
C/2017 B3 (LINEAR),h,02/02.6362/2019,54.1735,2.1796,284.7834,1.001885,3.922162,2000,6.0,4.0
# From MPEC 2020-N31
C/2017 E3 (PANSTARRS),h,06/08.1243/2017,70.6302,220.7351,334.5211,1.006912,5.937809,2000,6.5,4.0
# From MPEC 2020-N31
C/2017 K2 (PANSTARRS),h,12/19.9372/2022,87.5436,88.2640,236.1651,1.000434,1.799188,2000,1.5,4.0
# From MPEC 2020-N31
C/2017 K4 (ATLAS),e,16.6807,298.8676,15.2140,28.46539,0.0064898,0.90690602,5.9485,07/13.0/2020,2000,g 10.0,4.0
# From MPEC 2020-N31
C/2017 M4 (ATLAS),h,01/17.8925/2019,105.6453,65.8669,167.5748,1.001175,3.252091,2000,6.0,4.0
# From MPEC 2020-N31
C/2017 T2 (PANSTARRS),e,57.2307,64.3775,92.9952,3706,0.0000044,0.99956417,0.0000,05/04.9538/2020,2000,g  5.0,4.0
# From MPEC 2020-N31
C/2017 U7 (PANSTARRS),h,09/13.7320/2019,142.6089,276.2427,326.2515,1.002652,6.420615,2000,8.3,2.0
# From MPEC 2020-N31
C/2017 Y2 (PANSTARRS),h,11/04.5222/2020,128.4251,65.9819,147.8510,1.000836,4.632149,2000,15.0,4.0
# From MPEC 2020-N31
C/2018 A6 (Gibbs),e,76.9598,340.3823,264.5519,15.34503,0.0163966,0.80330625,5.9794,07/13.0/2020,2000,g  9.0,4.0
# From MPEC 2020-N31
C/2018 C2 (Lemmon),h,06/01.9295/2018,34.4583,91.1390,134.1162,1.000960,1.957286,2000,13.0,4.0
# From MPEC 2020-N31
C/2018 F4 (PANSTARRS),h,12/04.1362/2019,78.0972,26.5102,263.2211,1.001536,3.440039,2000,11.9,2.0
# From MPEC 2020-N31
C/2018 KJ3 (Lemmon),e,136.7092,91.5949,217.6434,765.4240,0.0000465,0.99525885,0.0000,09/09.5887/2019,2000,g 12.2,2.0
# From MPEC 2020-N31
C/2018 N2 (ASASSN),h,11/10.9590/2019,77.5284,25.2537,24.3973,1.000094,3.124642,2000,6.0,4.0
# From MPEC 2020-N31
C/2018 U1 (Lemmon),h,11/02.7941/2021,108.3015,75.4769,180.4163,1.000669,4.994085,2000,5.0,4.0
# From MPEC 2020-N31
A/2018 V3,e,164.9779,308.6572,3.4979,120.6289,0.0007439,0.98889481,0.0000,09/08.6774/2019,2000,g 15.7,2.0
# From MPEC 2020-N31
C/2018 W2 (Africano),h,09/05.7097/2019,116.6169,181.8537,157.9750,1.000578,1.454743,2000,9.5,4.0
# From MPEC 2020-N31
C/2019 A5 (PANSTARRS),e,67.5536,146.6232,356.0087,21.61228,0.0098096,0.70740074,3.9233,07/13.0/2020,2000,g  9.5,4.0
# From MPEC 2020-N31
C/2019 A9 (PANSTARRS),e,84.3098,278.3761,237.9121,39.79778,0.0039257,0.96410187,1.3832,07/13.0/2020,2000,g 15.0,4.0
# From MPEC 2020-N31
C/2019 B3 (PANSTARRS),h,01/19.8245/2021,66.5345,358.4210,263.8997,1.002853,6.823016,2000,5.5,4.0
# From MPEC 2020-N31
C/2019 C1 (ATLAS),e,36.0189,212.3940,319.1897,799.3324,0.0000436,0.99176645,0.0000,05/05.6910/2020,2000,g 10.0,4.0
# From MPEC 2020-N31
C/2019 F1 (ATLAS-Africano),h,06/22.7710/2021,54.1751,38.7261,251.1080,1.003456,3.596091,2000,5.5,4.0
# From MPEC 2020-N31
C/2019 K6 (PANSTARRS),e,132.3739,42.9403,187.6194,1539,0.0000163,0.99744698,0.0000,05/20.1939/2020,2000,g 11.5,4.0
# From MPEC 2020-N31
C/2019 K7 (Smith),h,06/16.9237/2020,103.5380,307.9260,27.2957,1.001061,4.475023,2000,6.0,4.0
# From MPC 82320
P/2012 T2 (PANSTARRS),e,12.5552,73.7334,310.4328,5.738723,0.0716937,0.16052760,189.4231,07/13.0/2020,2000,g 10.0,4.0
# From MPC 80900
P/2012 T3 (PANSTARRS),e,9.5688,114.4084,195.4315,6.152744,0.0645804,0.61716489,193.4431,07/13.0/2020,2000,g 15.0,4.0
# From MPC 87914
P/2012 TK8 (Tenagra),e,6.3405,288.9704,127.8347,4.130466,0.1174101,0.27434824,304.8965,07/13.0/2020,2000,g 13.0,4.0
# From MPC 82720
P/2012 U2 (PANSTARRS),e,10.7473,185.2671,228.3424,7.144020,0.0516167,0.49758224,144.7537,07/13.0/2020,2000,g 12.5,4.0
# From MPC 84024
P/2012 US27 (Siding Spring),e,39.3254,49.1692,0.8264,5.166202,0.0839358,0.64730843,228.8232,07/13.0/2020,2000,g 13.5,4.0
# From MPC 82721
